OBJECT_NAME,OBJECT_ID,EPOCH,MEAN_MOTION,ECCENTRICITY,INCLINATION,RA_OF_ASC_NODE,ARG_OF_PERICENTER,MEAN_ANOMALY,EPHEMERIS_TYPE,CLASSIFICATION_TYPE,NORAD_CAT_ID,ELEMENT_SET_NO,REV_AT_EPOCH,BSTAR,MEAN_MOTION_DOT,MEAN_MOTION_DDOT
SPACEMOBILE-004,2024-163E,2026-07-24T05:33:01.727136,15.20638649,.00052852,52.9740,138.5752,260.6163,99.4233,0,U,61049,999,10340,.1174208E-2,.25866E-3,0
SZ-21 MODULE,2025-246C,2026-07-23T23:40:13.306368,15.79546673,.00095015,41.4721,77.5925,274.6333,85.3428,0,U,66515,999,3955,.27063705E-3,.50919E-3,0
SPACEMOBILE-006,2025-309A,2026-07-24T07:01:23.947392,15.18701235,.00092587,52.9950,161.6556,247.0863,112.9154,0,U,67232,999,3223,.19277447E-3,.3733E-4,0
SPACEMOBILE-008,2026-139A,2026-07-24T03:18:17.437248,15.12820096,.00053914,52.9952,94.8071,76.5282,283.6310,0,U,69589,999,557,.6999687E-4,.943E-5,0
SPACEMOBILE-009,2026-139B,2026-07-24T01:46:51.767328,15.12720385,.00056302,52.9946,95.1172,74.3539,285.8073,0,U,69590,999,556,.10337096E-3,.1531E-4,0
SPACEMOBILE-010,2026-139C,2026-07-24T05:03:01.717056,15.12558231,.00056499,52.9949,94.5456,67.0645,293.0941,0,U,69591,999,559,.11018009E-3,.1644E-4,0
